NAVSTAR 43 (USA 132)    
1 24876U 97035A   21264.62747083  .00000005  00000-0  00000-0 0  9998
2 24876  55.4784 166.1617 0052701  53.9047 306.6381  2.00562474177263
NAVSTAR 47 (USA 150)    
1 26360U 00025A   21264.93456031 -.00000010  00000-0  00000-0 0  9992
2 26360  53.8464  89.9799 0055053 173.4522 135.6040  2.00565263156585
NAVSTAR 51 (USA 166)    
1 27663U 03005A   21264.54285528 -.00000020  00000-0  00000-0 0  9999
2 27663  55.7040 283.7309 0120787  38.0427 326.6866  2.00553615136620
NAVSTAR 52 (USA 168)    
1 27704U 03010A   21264.76724692 -.00000095  00000-0  00000-0 0  9997
2 27704  54.9089  34.2044 0242706 297.6626  85.4481  2.00567808135424
NAVSTAR 53 (USA 175)    
1 28129U 03058A   21264.81766596 -.00000006  00000-0  00000-0 0  9998
2 28129  53.6567  92.6276 0069116 307.6792  51.7549  2.00556770130103
NAVSTAR 54 (USA 177)    
1 28190U 04009A   21264.05478154 -.00000094  00000-0  00000-0 0  9996
2 28190  56.1434 344.6607 0089004 111.9490  60.7404  2.00566493128244
NAVSTAR 56 (USA 180)    
1 28474U 04045A   21264.79167594 -.00000095  00000-0  00000-0 0  9996
2 28474  55.2416  34.2427 0205215 274.3472 342.0843  2.00553753123747
NAVSTAR 57 (USA 183)    
1 28874U 05038A   21264.65662999 -.00000092  00000-0  00000-0 0  9994
2 28874  56.2214 342.0571 0138262 270.8738   0.0230  2.00564941117140
NAVSTAR 58 (USA 190)    
1 29486U 06042A   21264.39632883 -.00000018  00000-0  00000-0 0  9998
2 29486  54.7558 219.9810 0101347  15.8234 341.2252  2.00570450109691
NAVSTAR 59 (USA 192)    
1 29601U 06052A   21263.85009844 -.00000016  00000-0  00000-0 0  9991
2 29601  55.7035 282.6869 0080165  69.9254 290.9753  2.00563257108702
NAVSTAR 60 (USA 196)    
1 32260U 07047A   21263.65432930  .00000006  00000-0  00000-0 0  9993
2 32260  53.2483 151.7256 0134801  58.4510 302.9349  2.00562446102100
NAVSTAR 61 (USA 199)    
1 32384U 07062A   21264.38567080 -.00000092  00000-0  00000-0 0  9999
2 32384  56.3320 342.7953 0017795 139.6892 157.7560  2.00575396100819
NAVSTAR 62 (USA 201)    
1 32711U 08012A   21264.56883967 -.00000017  00000-0  00000-0 0  9991
2 32711  54.5103 218.9706 0154602 228.4494 130.1810  2.00555955 99062
NAVSTAR 64 (USA 206)    
1 35752U 09043A   21264.30674439  .00000005  00000-0  00000-0 0  9994
2 35752  54.8727  96.3827 0058979  55.6971 127.9080  2.00573406 88665
NAVSTAR 65 (USA 213)    
1 36585U 10022A   21264.87585411 -.00000019  00000-0  00000+0 0  9996
2 36585  54.9802 278.3522 0096921  54.6469 302.9977  2.00575767 82902
NAVSTAR 66 (USA 232)    
1 37753U 11036A   21264.76447655 -.00000087  00000-0  00000-0 0  9991
2 37753  56.4727  39.1836 0109014  50.2032 308.0434  2.00563859 74589
NAVSTAR 67 (USA 239)    
1 38833U 12053A   21264.25089623 -.00000022  00000-0  00000-0 0  9991
2 38833  53.5613 214.3861 0114494  42.6368 318.2104  2.00558594 64745
NAVSTAR 68 (USA 242)    
1 39166U 13023A   21263.61618054 -.00000087  00000-0  00000-0 0  9995
2 39166  55.8607 338.5754 0093663  35.2328 325.4381  2.00567500 61179
NAVSTAR 69 (USA 248)    
1 39533U 14008A   21264.11407560 -.00000022  00000-0  00000-0 0  9990
2 39533  53.6621 219.8708 0054553 205.6322 154.0599  2.00566396 54981
NAVSTAR 71 (USA 256)    
1 40105U 14045A   21263.98361160  .00000006  00000-0  00000-0 0  9998
2 40105  54.6385 157.5647 0019551 105.4562 254.8282  2.00559475 51376
NAVSTAR 72 (USA 258)    
1 40294U 14068A   21262.35611892  .00000020  00000-0  00000-0 0  9998
2 40294  55.6173  98.6609 0036837  54.1733 306.2470  2.00552467 50475
NAVSTAR 73 (USA 260)    
1 40534U 15013A   21263.98968076 -.00000018  00000-0  00000-0 0  9993
2 40534  53.8857 275.8533 0060719  14.7042 345.4962  2.00568849 47127
NAVSTAR 74 (USA 262)    
1 40730U 15033A   21264.64822844 -.00000088  00000-0  00000-0 0  9996
2 40730  55.3655 337.4906 0064904   1.0571 359.0156  2.00566063 45303
NAVSTAR 75 (USA 265)    
1 41019U 15062A   21263.20294062  .00000017  00000-0  00000-0 0  9996
2 41019  55.6096  98.4648 0070744 213.3564 146.2705  2.00563345 43115
NAVSTAR 76 (USA 266)    
1 41328U 16007A   21264.29182280  .00000008  00000-0  00000-0 0  9997
2 41328  54.8632 158.1564 0052540 225.5828 134.0549  2.00558139 41145
NAVSTAR 77 (USA 289)    
1 43873U 18109A   21264.86801087  .00000010  00000-0  00000-0 0  9998
2 43873  55.0445 160.4957 0014381 193.4324 115.0677  2.00561042 20385
NAVSTAR 78 (USA 293)    
1 44506U 19056A   21264.68327017 -.00000088  00000-0  00000-0 0  9996
2 44506  55.5413  39.7588 0019297 176.0932 259.9888  2.00567116 15384
NAVSTAR 79 (USA 304)    
1 45854U 20041A   21264.68296748  .00000005  00000-0  00000-0 0  9993
2 45854  55.3256  97.0253 0016191 161.5732 216.6759  2.00563842  9356
NAVSTAR 80 (USA 309)    
1 46826U 20078A   21264.45450826 -.00000021  00000-0  00000-0 0  9996
2 46826  54.7546 281.0025 0011196 190.4542 351.9807  2.00566826  6813
